[{"OBJECT_NAME":"ONEWEB-0656","OBJECT_ID":"2023-029X","EPOCH":"2026-03-09T15:49:54.776064","MEAN_MOTION":13.20770703,"ECCENTRICITY":0.0001393,"INCLINATION":87.9171,"RA_OF_ASC_NODE":294.3009,"ARG_OF_PERICENTER":70.4706,"MEAN_ANOMALY":289.6578,"EPHEMERIS_TYPE":0,"CLASSIFICATION_TYPE":"U","NORAD_CAT_ID":55817,"ELEMENT_SET_NO":999,"REV_AT_EPOCH":14801,"BSTAR":-0.00029553547,"MEAN_MOTION_DOT":-1.07e-6,"MEAN_MOTION_DDOT":0},{"OBJECT_NAME":"FENGYUN 1C DEB","OBJECT_ID":"1999-025Z","EPOCH":"2026-03-09T15:48:56.147616","MEAN_MOTION":12.75500874,"ECCENTRICITY":0.07056105,"INCLINATION":99.3889,"RA_OF_ASC_NODE":334.1449,"ARG_OF_PERICENTER":342.673,"MEAN_ANOMALY":15.1352,"EPHEMERIS_TYPE":0,"CLASSIFICATION_TYPE":"U","NORAD_CAT_ID":29735,"ELEMENT_SET_NO":999,"REV_AT_EPOCH":88523,"BSTAR":0.0038350613,"MEAN_MOTION_DOT":2.273e-5,"MEAN_MOTION_DDOT":0}]
